STARLINK-37998          
1 69679U 26145C   26188.48558553  .00194401  00000+0  12604-2 0  9996
2 69679  97.2852  34.9520 0001196  56.2788 303.8592 15.75452053  1961
STARLINK-37994          
1 69680U 26145D   26188.42348117  .00201893  00000+0  13097-2 0  9996
2 69680  97.2860  34.8840 0001081  59.7315 300.4057 15.75419163  1956
STARLINK-37992          
1 69681U 26145E   26188.42314269  .00183951  00000+0  11980-2 0  9991
2 69681  97.2848  34.8834 0001710  66.0334 294.1110 15.75377994  1951
STARLINK-37997          
1 69682U 26145F   26188.42243481  .00158602  00000+0  10369-2 0  9994
2 69682  97.2848  34.8839 0001597  96.4645 263.6802 15.75359830  1950
STARLINK-37990          
1 69683U 26145G   26188.42278112  .00185016  00000+0  12039-2 0  9999
2 69683  97.2841  34.8832 0001286  90.6496 269.4917 15.75394447  1956
STARLINK-37951          
1 69684U 26145H   26188.42171911  .00208391  00000+0  13513-2 0  9999
2 69684  97.2851  34.8852 0001040  98.6982 261.4401 15.75408794  1957
STARLINK-37957          
1 69685U 26145J   26188.42066635  .00177669  00000+0  11577-2 0  9997
2 69685  97.2842  34.8863 0001447  90.2743 269.8688 15.75383484  1951
STARLINK-37968          
1 69686U 26145K   26188.41466823  .00146459  00000+0  95919-3 0  9996
2 69686  97.2852  34.8960 0000808 110.4431 249.6921 15.75354898  1953
STARLINK-37977          
1 69687U 26145L   26188.41394703  .00230560  00000+0  14882-2 0  9990
2 69687  97.2857  34.8969 0000759 110.6882 249.4465 15.75453100  1952
STARLINK-37908          
1 69688U 26145M   26188.41672454  .00060096  00000+0  40180-3 0  9999
2 69688  97.2863  34.9058 0000869  93.7930 293.8509 15.75141503  3187
STARLINK-37979          
1 69689U 26145N   26188.41672454  .00025324  00000+0  17029-3 0  9991
2 69689  97.2863  34.9062 0001528  88.4081 301.2161 15.75169863  3181
STARLINK-37940          
1 69690U 26145P   26188.41043779  .00152712  00000+0  99934-3 0  9992
2 69690  97.2846  34.9010 0002009 106.2880 253.8606 15.75354595  1955
STARLINK-37961          
1 69691U 26145Q   26188.41672454  .00014742  00000+0  99595-4 0  9995
2 69691  97.2860  34.9163 0001330  89.3737 324.2448 15.75175435  3187
STARLINK-37787          
1 69692U 26145R   26188.41672454 -.00027745  00000+0 -18579-3 0  9997
2 69692  97.2851  34.9228 0001347  68.9549 356.6710 15.75185093  3184
STARLINK-37962          
1 69693U 26145S   26188.41672454 -.00030739  00000+0 -20599-3 0  9990
2 69693  97.2851  34.9272 0001588  90.5221 345.1023 15.75185146  3188
STARLINK-37953          
1 69694U 26145T   26188.41672454  .00034811  00000+0  23359-3 0  9991
2 69694  97.2860  34.9189 0001441  94.3200 325.3057 15.75161186  3188
STARLINK-37926          
1 69695U 26145U   26188.41672454 -.00124609  00000+0 -84494-3 0  9996
2 69695  97.2851  34.9226 0001479 109.7927 313.8184 15.75239543  3185
STARLINK-37959          
1 69696U 26145V   26188.41672454 -.00114082  00000+0 -77266-3 0  9990
2 69696  97.2852  34.9244 0001361  99.1524 330.4564 15.75236579  3185
STARLINK-37976          
1 69697U 26145W   26188.41672454 -.00037760  00000+0 -25342-3 0  9996
2 69697  97.2852  34.9315 0001344  86.9206 358.7029 15.75188420  3187
STARLINK-37912          
1 69698U 26145X   26188.41672454 -.00006237  00000+0 -41028-4 0  9992
2 69698  97.2853  34.9335 0001242  69.1435  22.4687 15.75160611  3182
STARLINK-37974          
1 69699U 26145Y   26188.41672454 -.00019915  00000+0 -13304-3 0  9995
2 69699  97.2852  34.9359 0001448  86.6576   8.9721 15.75176418  3186
STARLINK-37955          
1 69700U 26145Z   26188.41672454 -.00087999  00000+0 -59457-3 0  9994
2 69700  97.2855  34.9424 0001045  86.7509  22.8637 15.75215046  3187
STRIX-8                 
1 69701U 26146A   26188.51755888  .00003370  00000+0  25055-3 0  9996
2 69701  41.9898  55.6225 0008457 332.6670  27.3711 15.04390511  1629
STARLINK-38055          
1 69704U 26147A   26188.41672454  .00005396  00000+0  28900-4 0  9999
2 69704  97.2841 224.3524 0001348  95.9382  94.9940 15.80809854  2491
STARLINK-37898          
1 69705U 26147B   26188.41672454 -.00045177  00000+0 -23621-3 0  9997
2 69705  97.2838 224.3534 0000968  96.4811  99.1409 15.80827912  2491
STARLINK-37970          
1 69706U 26147C   26188.41672454 -.00027451  00000+0 -14294-3 0  9999
2 69706  97.2839 224.3558 0001414 101.9337  97.9598 15.80828440  2493
STARLINK-37975          
1 69707U 26147D   26188.41672454 -.00033453  00000+0 -17448-3 0  9993
2 69707  97.2838 224.3574 0000936  89.3728 114.7951 15.80828657  2493
STARLINK-37972          
1 69708U 26147E   26188.41672454 -.00018368  00000+0 -95354-4 0  9995
2 69708  97.2840 224.3597 0000544  90.9282 117.5280 15.80817601  2493
