OBJECT_NAME,OBJECT_ID,EPOCH,MEAN_MOTION,ECCENTRICITY,INCLINATION,RA_OF_ASC_NODE,ARG_OF_PERICENTER,MEAN_ANOMALY,EPHEMERIS_TYPE,CLASSIFICATION_TYPE,NORAD_CAT_ID,ELEMENT_SET_NO,REV_AT_EPOCH,BSTAR,MEAN_MOTION_DOT,MEAN_MOTION_DDOT
STARLINK-37998,2026-145C,2026-07-07T11:39:14.589792,15.75452053,.0001196,97.2852,34.9520,56.2788,303.8592,0,U,69679,999,196,.12604E-2,.194401E-2,0
STARLINK-37994,2026-145D,2026-07-07T10:09:48.773088,15.75419163,.0001081,97.2860,34.8840,59.7315,300.4057,0,U,69680,999,195,.13097E-2,.201893E-2,0
STARLINK-37992,2026-145E,2026-07-07T10:09:19.528416,15.75377994,.000171,97.2848,34.8834,66.0334,294.1110,0,U,69681,999,195,.1198E-2,.183951E-2,0
STARLINK-37997,2026-145F,2026-07-07T10:08:18.367584,15.75359830,.0001597,97.2848,34.8839,96.4645,263.6802,0,U,69682,999,195,.10369E-2,.158602E-2,0
STARLINK-37990,2026-145G,2026-07-07T10:08:48.288768,15.75394447,.0001286,97.2841,34.8832,90.6496,269.4917,0,U,69683,999,195,.12039E-2,.185016E-2,0
STARLINK-37951,2026-145H,2026-07-07T10:07:16.531104,15.75408794,.000104,97.2851,34.8852,98.6982,261.4401,0,U,69684,999,195,.13513E-2,.208391E-2,0
STARLINK-37957,2026-145J,2026-07-07T10:05:45.572640,15.75383484,.0001447,97.2842,34.8863,90.2743,269.8688,0,U,69685,999,195,.11577E-2,.177669E-2,0
STARLINK-37968,2026-145K,2026-07-07T09:57:07.335072,15.75354898,.0000808,97.2852,34.8960,110.4431,249.6921,0,U,69686,999,195,.95919E-3,.146459E-2,0
STARLINK-37977,2026-145L,2026-07-07T09:56:05.023392,15.75453100,.0000759,97.2857,34.8969,110.6882,249.4465,0,U,69687,999,195,.14882E-2,.23056E-2,0
STARLINK-37908,2026-145M,2026-07-07T10:00:05.000256,15.75141503,.0000869,97.2863,34.9058,93.7930,293.8509,0,U,69688,999,318,.4018E-3,.60096E-3,0
STARLINK-37979,2026-145N,2026-07-07T10:00:05.000256,15.75169863,.0001528,97.2863,34.9062,88.4081,301.2161,0,U,69689,999,318,.17029E-3,.25324E-3,0
STARLINK-37940,2026-145P,2026-07-07T09:51:01.825056,15.75354595,.0002009,97.2846,34.9010,106.2880,253.8606,0,U,69690,999,195,.99934E-3,.152712E-2,0
STARLINK-37961,2026-145Q,2026-07-07T10:00:05.000256,15.75175435,.000133,97.2860,34.9163,89.3737,324.2448,0,U,69691,999,318,.99595E-4,.14742E-3,0
STARLINK-37787,2026-145R,2026-07-07T10:00:05.000256,15.75185093,.0001347,97.2851,34.9228,68.9549,356.6710,0,U,69692,999,318,-.18579E-3,-.27745E-3,0
STARLINK-37962,2026-145S,2026-07-07T10:00:05.000256,15.75185146,.0001588,97.2851,34.9272,90.5221,345.1023,0,U,69693,999,318,-.20599E-3,-.30739E-3,0
STARLINK-37953,2026-145T,2026-07-07T10:00:05.000256,15.75161186,.0001441,97.2860,34.9189,94.3200,325.3057,0,U,69694,999,318,.23359E-3,.34811E-3,0
STARLINK-37926,2026-145U,2026-07-07T10:00:05.000256,15.75239543,.0001479,97.2851,34.9226,109.7927,313.8184,0,U,69695,999,318,-.84494E-3,-.124609E-2,0
STARLINK-37959,2026-145V,2026-07-07T10:00:05.000256,15.75236579,.0001361,97.2852,34.9244,99.1524,330.4564,0,U,69696,999,318,-.77266E-3,-.114082E-2,0
STARLINK-37976,2026-145W,2026-07-07T10:00:05.000256,15.75188420,.0001344,97.2852,34.9315,86.9206,358.7029,0,U,69697,999,318,-.25342E-3,-.3776E-3,0
STARLINK-37912,2026-145X,2026-07-07T10:00:05.000256,15.75160611,.0001242,97.2853,34.9335,69.1435,22.4687,0,U,69698,999,318,-.41028E-4,-.6237E-4,0
STARLINK-37974,2026-145Y,2026-07-07T10:00:05.000256,15.75176418,.0001448,97.2852,34.9359,86.6576,8.9721,0,U,69699,999,318,-.13304E-3,-.19915E-3,0
STARLINK-37955,2026-145Z,2026-07-07T10:00:05.000256,15.75215046,.0001045,97.2855,34.9424,86.7509,22.8637,0,U,69700,999,318,-.59457E-3,-.87999E-3,0
STRIX-8,2026-146A,2026-07-07T12:25:17.087232,15.04390511,.0008457,41.9898,55.6225,332.6670,27.3711,0,U,69701,999,162,.25055E-3,.337E-4,0
STARLINK-38055,2026-147A,2026-07-07T10:00:05.000256,15.80809854,.0001348,97.2841,224.3524,95.9382,94.9940,0,U,69704,999,249,.289E-4,.5396E-4,0
STARLINK-37898,2026-147B,2026-07-07T10:00:05.000256,15.80827912,.0000968,97.2838,224.3534,96.4811,99.1409,0,U,69705,999,249,-.23621E-3,-.45177E-3,0
STARLINK-37970,2026-147C,2026-07-07T10:00:05.000256,15.80828440,.0001414,97.2839,224.3558,101.9337,97.9598,0,U,69706,999,249,-.14294E-3,-.27451E-3,0
STARLINK-37975,2026-147D,2026-07-07T10:00:05.000256,15.80828657,.0000936,97.2838,224.3574,89.3728,114.7951,0,U,69707,999,249,-.17448E-3,-.33453E-3,0
STARLINK-37972,2026-147E,2026-07-07T10:00:05.000256,15.80817601,.0000544,97.2840,224.3597,90.9282,117.5280,0,U,69708,999,249,-.95354E-4,-.18368E-3,0
